[
  {
    "OBJECT_NAME": "STARLINK-32839",
    "OBJECT_ID": "25037A",
    "EPOCH": "2025-11-11T06:47:00.073536",
    "MEAN_MOTION": 14.98334669,
    "ECCENTRICITY": 0.0002913,
    "INCLINATION": 70.0008,
    "RA_OF_ASC_NODE": 293.0915,
    "ARG_OF_PERICENTER": 270.2519,
    "MEAN_ANOMALY": 89.8306,
    "EPHEMERIS_TYPE": 0,
    "CLASSIFICATION_TYPE": "U",
    "NORAD_CAT_ID": 63077,
    "ELEMENT_SET_NO": 999,
    "REV_AT_EPOCH": 4085,
    "BSTAR": 0.00037820999999999997,
    "MEAN_MOTION_DOT": 4.423e-05,
    "MEAN_MOTION_DDOT": 0.0,
    "TLE_LINE1": "1 63077U 25037A   25315.28263974  .00004423  00000+0  37821-3 0  9993",
    "TLE_LINE2": "2 63077  70.0008 293.0915 0002913 270.2519  89.8306 14.98334669 40854",
    "COMMENT": "Grouped by shell and plane from TLE"
  },
  {
    "OBJECT_NAME": "STARLINK-32821",
    "OBJECT_ID": "25037B",
    "EPOCH": "2025-11-11T06:46:45.126336",
    "MEAN_MOTION": 14.98321562,
    "ECCENTRICITY": 0.0002838,
    "INCLINATION": 70.001,
    "RA_OF_ASC_NODE": 293.0863,
    "ARG_OF_PERICENTER": 267.7442,
    "MEAN_ANOMALY": 92.3392,
    "EPHEMERIS_TYPE": 0,
    "CLASSIFICATION_TYPE": "U",
    "NORAD_CAT_ID": 63078,
    "ELEMENT_SET_NO": 999,
    "REV_AT_EPOCH": 4085,
    "BSTAR": 0.0,
    "MEAN_MOTION_DOT": -2.81e-05,
    "MEAN_MOTION_DDOT": 0.0,
    "TLE_LINE1": "1 63078U 25037B   25315.28246674 -.00002810  00000+0 -22786-3 0  9996",
    "TLE_LINE2": "2 63078  70.0010 293.0863 0002838 267.7442  92.3392 14.98321562 40854",
    "COMMENT": "Grouped by shell and plane from TLE"
  },
  {
    "OBJECT_NAME": "STARLINK-32817",
    "OBJECT_ID": "25037C",
    "EPOCH": "2025-11-11T06:04:40.971936",
    "MEAN_MOTION": 14.98336617,
    "ECCENTRICITY": 0.0002969,
    "INCLINATION": 70.0005,
    "RA_OF_ASC_NODE": 292.9808,
    "ARG_OF_PERICENTER": 270.8947,
    "MEAN_ANOMALY": 89.1872,
    "EPHEMERIS_TYPE": 0,
    "CLASSIFICATION_TYPE": "U",
    "NORAD_CAT_ID": 63079,
    "ELEMENT_SET_NO": 999,
    "REV_AT_EPOCH": 4085,
    "BSTAR": 0.000533,
    "MEAN_MOTION_DOT": 6.273e-05,
    "MEAN_MOTION_DDOT": 0.0,
    "TLE_LINE1": "1 63079U 25037C   25315.25325199  .00006273  00000+0  53300-3 0  9995",
    "TLE_LINE2": "2 63079  70.0005 292.9808 0002969 270.8947  89.1872 14.98336617 40850",
    "COMMENT": "Grouped by shell and plane from TLE"
  },
  {
    "OBJECT_NAME": "STARLINK-32906",
    "OBJECT_ID": "25037D",
    "EPOCH": "2025-11-11T07:11:02.334048",
    "MEAN_MOTION": 14.98348723,
    "ECCENTRICITY": 0.0002779,
    "INCLINATION": 70.001,
    "RA_OF_ASC_NODE": 293.1438,
    "ARG_OF_PERICENTER": 267.6201,
    "MEAN_ANOMALY": 92.464,
    "EPHEMERIS_TYPE": 0,
    "CLASSIFICATION_TYPE": "U",
    "NORAD_CAT_ID": 63080,
    "ELEMENT_SET_NO": 999,
    "REV_AT_EPOCH": 4086,
    "BSTAR": 0.00019669000000000002,
    "MEAN_MOTION_DOT": 2.256e-05,
    "MEAN_MOTION_DDOT": 0.0,
    "TLE_LINE1": "1 63080U 25037D   25315.29933257  .00002256  00000+0  19669-3 0  9998",
    "TLE_LINE2": "2 63080  70.0010 293.1438 0002779 267.6201  92.4640 14.98348723 40868",
    "COMMENT": "Grouped by shell and plane from TLE"
  },
  {
    "OBJECT_NAME": "STARLINK-32895",
    "OBJECT_ID": "25037E",
    "EPOCH": "2025-11-11T07:04:49.476576",
    "MEAN_MOTION": 14.98348032,
    "ECCENTRICITY": 0.0003001,
    "INCLINATION": 70.0002,
    "RA_OF_ASC_NODE": 293.1315,
    "ARG_OF_PERICENTER": 272.5303,
    "MEAN_ANOMALY": 87.5513,
    "EPHEMERIS_TYPE": 0,
    "CLASSIFICATION_TYPE": "U",
    "NORAD_CAT_ID": 63081,
    "ELEMENT_SET_NO": 999,
    "REV_AT_EPOCH": 4072,
    "BSTAR": 0.0010749,
    "MEAN_MOTION_DOT": 0.00012762,
    "MEAN_MOTION_DDOT": 0.0,
    "TLE_LINE1": "1 63081U 25037E   25315.29501709  .00012762  00000+0  10749-2 0  9994",
    "TLE_LINE2": "2 63081  70.0002 293.1315 0003001 272.5303  87.5513 14.98348032 40723",
    "COMMENT": "Grouped by shell and plane from TLE"
  },
  {
    "OBJECT_NAME": "STARLINK-32933",
    "OBJECT_ID": "25037F",
    "EPOCH": "2025-11-11T06:28:58.138176",
    "MEAN_MOTION": 14.98327755,
    "ECCENTRICITY": 0.000314,
    "INCLINATION": 70.0003,
    "RA_OF_ASC_NODE": 293.039,
    "ARG_OF_PERICENTER": 267.3007,
    "MEAN_ANOMALY": 92.7792,
    "EPHEMERIS_TYPE": 0,
    "CLASSIFICATION_TYPE": "U",
    "NORAD_CAT_ID": 63082,
    "ELEMENT_SET_NO": 999,
    "REV_AT_EPOCH": 4080,
    "BSTAR": 0.00070272,
    "MEAN_MOTION_DOT": 8.301e-05,
    "MEAN_MOTION_DDOT": 0.0,
    "TLE_LINE1": "1 63082U 25037F   25315.27011734  .00008301  00000+0  70272-3 0  9999",
    "TLE_LINE2": "2 63082  70.0003 293.0390 0003140 267.3007  92.7792 14.98327755 40809",
    "COMMENT": "Grouped by shell and plane from TLE"
  },
  {
    "OBJECT_NAME": "STARLINK-32932",
    "OBJECT_ID": "25037G",
    "EPOCH": "2025-11-11T06:34:43.440960",
    "MEAN_MOTION": 14.98373575,
    "ECCENTRICITY": 0.0002765,
    "INCLINATION": 70.0012,
    "RA_OF_ASC_NODE": 293.0611,
    "ARG_OF_PERICENTER": 266.4976,
    "MEAN_ANOMALY": 93.5866,
    "EPHEMERIS_TYPE": 0,
    "CLASSIFICATION_TYPE": "U",
    "NORAD_CAT_ID": 63083,
    "ELEMENT_SET_NO": 999,
    "REV_AT_EPOCH": 4072,
    "BSTAR": 0.0017083,
    "MEAN_MOTION_DOT": 0.00020372,
    "MEAN_MOTION_DDOT": 0.0,
    "TLE_LINE1": "1 63083U 25037G   25315.27411390  .00020372  00000+0  17083-2 0  9994",
    "TLE_LINE2": "2 63083  70.0012 293.0611 0002765 266.4976  93.5866 14.98373575 40726",
    "COMMENT": "Grouped by shell and plane from TLE"
  },
  {
    "OBJECT_NAME": "STARLINK-32908",
    "OBJECT_ID": "25037H",
    "EPOCH": "2025-11-11T06:22:43.022208",
    "MEAN_MOTION": 14.98342593,
    "ECCENTRICITY": 0.0003354,
    "INCLINATION": 70.0002,
    "RA_OF_ASC_NODE": 293.0267,
    "ARG_OF_PERICENTER": 268.6563,
    "MEAN_ANOMALY": 91.4212,
    "EPHEMERIS_TYPE": 0,
    "CLASSIFICATION_TYPE": "U",
    "NORAD_CAT_ID": 63084,
    "ELEMENT_SET_NO": 999,
    "REV_AT_EPOCH": 4072,
    "BSTAR": 0.0007415500000000001,
    "MEAN_MOTION_DOT": 8.769e-05,
    "MEAN_MOTION_DDOT": 0.0,
    "TLE_LINE1": "1 63084U 25037H   25315.26577572  .00008769  00000+0  74155-3 0  9999",
    "TLE_LINE2": "2 63084  70.0002 293.0267 0003354 268.6563  91.4212 14.98342593 40722",
    "COMMENT": "Grouped by shell and plane from TLE"
  },
  {
    "OBJECT_NAME": "STARLINK-32505",
    "OBJECT_ID": "25037J",
    "EPOCH": "2025-11-11T07:05:01.803264",
    "MEAN_MOTION": 14.98341554,
    "ECCENTRICITY": 0.0002987,
    "INCLINATION": 70.0005,
    "RA_OF_ASC_NODE": 293.1297,
    "ARG_OF_PERICENTER": 269.2442,
    "MEAN_ANOMALY": 90.8375,
    "EPHEMERIS_TYPE": 0,
    "CLASSIFICATION_TYPE": "U",
    "NORAD_CAT_ID": 63085,
    "ELEMENT_SET_NO": 999,
    "REV_AT_EPOCH": 4081,
    "BSTAR": 0.00054309,
    "MEAN_MOTION_DOT": 6.395e-05,
    "MEAN_MOTION_DDOT": 0.0,
    "TLE_LINE1": "1 63085U 25037J   25315.29515976  .00006395  00000+0  54309-3 0  9995",
    "TLE_LINE2": "2 63085  70.0005 293.1297 0002987 269.2442  90.8375 14.98341554 40813",
    "COMMENT": "Grouped by shell and plane from TLE"
  },
  {
    "OBJECT_NAME": "STARLINK-32914",
    "OBJECT_ID": "25037K",
    "EPOCH": "2025-11-11T06:28:43.817376",
    "MEAN_MOTION": 14.98329932,
    "ECCENTRICITY": 0.0003037,
    "INCLINATION": 70.0004,
    "RA_OF_ASC_NODE": 293.0394,
    "ARG_OF_PERICENTER": 268.8577,
    "MEAN_ANOMALY": 91.2235,
    "EPHEMERIS_TYPE": 0,
    "CLASSIFICATION_TYPE": "U",
    "NORAD_CAT_ID": 63086,
    "ELEMENT_SET_NO": 999,
    "REV_AT_EPOCH": 4086,
    "BSTAR": 0.0007135,
    "MEAN_MOTION_DOT": 8.431e-05,
    "MEAN_MOTION_DDOT": 0.0,
    "TLE_LINE1": "1 63086U 25037K   25315.26995159  .00008431  00000+0  71350-3 0  9996",
    "TLE_LINE2": "2 63086  70.0004 293.0394 0003037 268.8577  91.2235 14.98329932 40862",
    "COMMENT": "Grouped by shell and plane from TLE"
  },
  {
    "OBJECT_NAME": "STARLINK-32918",
    "OBJECT_ID": "25037L",
    "EPOCH": "2025-11-11T06:52:46.115040",
    "MEAN_MOTION": 14.98339521,
    "ECCENTRICITY": 0.0002916,
    "INCLINATION": 70.0006,
    "RA_OF_ASC_NODE": 293.1005,
    "ARG_OF_PERICENTER": 271.1862,
    "MEAN_ANOMALY": 88.8963,
    "EPHEMERIS_TYPE": 0,
    "CLASSIFICATION_TYPE": "U",
    "NORAD_CAT_ID": 63087,
    "ELEMENT_SET_NO": 999,
    "REV_AT_EPOCH": 4095,
    "BSTAR": 0.00046662,
    "MEAN_MOTION_DOT": 5.48e-05,
    "MEAN_MOTION_DDOT": 0.0,
    "TLE_LINE1": "1 63087U 25037L   25315.28664485  .00005480  00000+0  46662-3 0  9993",
    "TLE_LINE2": "2 63087  70.0006 293.1005 0002916 271.1862  88.8963 14.98339521 40959",
    "COMMENT": "Grouped by shell and plane from TLE"
  },
  {
    "OBJECT_NAME": "STARLINK-32912",
    "OBJECT_ID": "25037M",
    "EPOCH": "2025-11-11T07:23:01.245120",
    "MEAN_MOTION": 14.98343495,
    "ECCENTRICITY": 0.000313,
    "INCLINATION": 70.0004,
    "RA_OF_ASC_NODE": 292.7757,
    "ARG_OF_PERICENTER": 268.0957,
    "MEAN_ANOMALY": 91.9843,
    "EPHEMERIS_TYPE": 0,
    "CLASSIFICATION_TYPE": "U",
    "NORAD_CAT_ID": 63088,
    "ELEMENT_SET_NO": 999,
    "REV_AT_EPOCH": 4097,
    "BSTAR": 0.00059837,
    "MEAN_MOTION_DOT": 7.056e-05,
    "MEAN_MOTION_DDOT": 0.0,
    "TLE_LINE1": "1 63088U 25037M   25315.30765330  .00007056  00000+0  59837-3 0  9997",
    "TLE_LINE2": "2 63088  70.0004 292.7757 0003130 268.0957  91.9843 14.98343495 40975",
    "COMMENT": "Grouped by shell and plane from TLE"
  },
  {
    "OBJECT_NAME": "STARLINK-32910",
    "OBJECT_ID": "25037N",
    "EPOCH": "2025-11-11T06:34:58.643904",
    "MEAN_MOTION": 14.98334173,
    "ECCENTRICITY": 0.000313,
    "INCLINATION": 70.0008,
    "RA_OF_ASC_NODE": 293.0556,
    "ARG_OF_PERICENTER": 271.2364,
    "MEAN_ANOMALY": 88.8437,
    "EPHEMERIS_TYPE": 0,
    "CLASSIFICATION_TYPE": "U",
    "NORAD_CAT_ID": 63089,
    "ELEMENT_SET_NO": 999,
    "REV_AT_EPOCH": 4086,
    "BSTAR": 0.00032428000000000003,
    "MEAN_MOTION_DOT": 3.779e-05,
    "MEAN_MOTION_DDOT": 0.0,
    "TLE_LINE1": "1 63089U 25037N   25315.27428986  .00003779  00000+0  32428-3 0  9992",
    "TLE_LINE2": "2 63089  70.0008 293.0556 0003130 271.2364  88.8437 14.98334173 40864",
    "COMMENT": "Grouped by shell and plane from TLE"
  }
]